[{"type": "node", "id": 1014954, "lat": 46.4928487, "lon": 7.5628558, "tags": {"addr:housenumber": "18", "addr:street": "Landstrasse", "amenity": "cinema", "name": "Cin\u00e9 Rex", "url": "www.cine-rex.ch", "website": "https://www.cine-rex.ch/kino.shtml", "wikidata": "Q35718895"}}, {"type": "node", "id": 29455086, "lat": 47.4987786, "lon": 8.7261242, "tags": {"addr:city": "Winterthur", "addr:country": "CH", "addr:housenumber": "13", "addr:postcode": "8400", "addr:street": "Neumarkt", "amenity": "cinema", "name": "Kiwi", "wheelchair": "limited"}}, {"type": "node", "id": 213230419, "lat": 46.6843354, "lon": 7.8559108, "tags": {"amenity": "cinema", "name": "Cine Rex", "website": "http://www.kino-interlaken.ch/", "wheelchair": "limited"}}, {"type": "node", "id": 245455175, "lat": 47.4748718, "lon": 8.3075346, "tags": {"addr:city": "Baden", "addr:housenumber": "22", "addr:postcode": "5400", "addr:street": "Bahnhofstrasse", "amenity": "cinema", "email": "info@sterk.ch", "name": "Kino Sterk", "phone": "+41 56 204 04 00", "screen": "2", "website": "https://www.sterk.ch/", "wheelchair": "limited", "wikidata": "Q35719182"}}, {"type": "node", "id": 247696793, "lat": 47.6573735, "lon": 8.858442, "tags": {"amenity": "cinema", "name": "Schwanen", "wikidata": "Q47354402"}}, {"type": "node", "id": 251331441, "lat": 47.4633008, "lon": 9.0417777, "tags": {"addr:city": "Wil SG", "addr:housenumber": "7", "addr:place": "Bahnhofplatz", "addr:postcode": "9500", "amenity": "cinema", "name": "Cinewil", "opening_hours": "Mo-Su,PH 08:30-18:00+", "website": "http://www.cinewil.ch/"}}, {"type": "node", "id": 251364455, "lat": 47.562569, "lon": 9.1252918, "tags": {"amenity": "cinema", "name": "Liberty Cinema", "website": "http://www.liberty-cinema.ch/"}}, {"type": "node", "id": 253266818, "lat": 46.5272555, "lon": 6.6025623, "tags": {"addr:city": "Prilly", "addr:housenumber": "1", "addr:postcode": "1008", "addr:street": "Chemin du Viaduc", "amenity": "cinema", "level": "1", "name": "Cin\u00e9toile - Malley Lumi\u00e8res", "note": "Toutes les salles, sauf la num\u00e9ro 4, sont accessibles aux personnes \u00e0 mobilit\u00e9 r\u00e9duite.", "operator": "Cine qua non SA", "phone": "+41 21 621 88 20", "screen": "6", "toilets": "yes", "toilets:access": "customers", "toilets:wheelchair": "designated", "website": "https://www.cinetoile.ch/", "wheelchair": "limited", "wheelchair:description": "All rooms except number 4 are accessible", "wikidata": "Q35721691"}}, {"type": "node", "id": 253266825, "lat": 46.5077991, "lon": 6.4958654, "tags": {"addr:city": "Morges", "addr:country": "CH", "addr:housenumber": "4", "addr:postcode": "1110", "addr:street": "Place Charles Dufour", "amenity": "cinema", "name": "Od\u00e9on", "phone": "+41 21 802 47 01", "website": "http://www.cinemaodeon.ch/", "wikidata": "Q35721636"}}, {"type": "node", "id": 253303640, "lat": 46.5204083, "lon": 6.6252882, "tags": {"addr:city": "Lausanne", "addr:housenumber": "3", "addr:postcode": "1003", "addr:street": "All\u00e9e Ernest-Ansermet", "amenity": "cinema", "fax": "+41 58 800 03 91", "name": "Cin\u00e9math\u00e8que suisse", "phone": "+41 58 800 02 00", "website": "https://www.cinematheque.ch/", "wikidata": "Q688143", "wikipedia": "fr:Cin\u00e9math\u00e8que suisse"}}, {"type": "node", "id": 264793388, "lat": 47.4140341, "lon": 8.6224865, "tags": {"addr:city": "Dietlikon", "addr:country": "CH", "addr:housenumber": "2", "addr:postcode": "8305", "addr:street": "Moorstrasse", "amenity": "cinema", "name": "Pathe", "opening_hours": "Mo-Fr 12:30+; Sa-Su 10:00+", "website": "https://pathe.ch/", "wheelchair": "yes", "wikidata": "Q35792302"}}, {"type": "node", "id": 268134975, "lat": 47.2257077, "lon": 8.8163715, "tags": {"addr:city": "Rapperswil (SG)", "addr:housenumber": "4", "addr:postcode": "8640", "addr:street": "Fischmarktstrasse", "amenity": "cinema", "name": "Schlosskino", "phone": "+41 55 210 74 44", "website": "http://kinoevent.ch", "wikidata": "Q35721781"}}, {"type": "node", "id": 269423291, "lat": 47.3464285, "lon": 8.7177725, "tags": {"addr:city": "Uster", "addr:housenumber": "2", "addr:postcode": "8610", "addr:street": "Brauereistrasse", "amenity": "cinema", "name": "Qtopia", "opening_hours": "Su 17:45+, Mo,Tu 19:45+", "operator": "Qtopia Kino + Bar", "phone": "+41 44 994 53 31", "toilets:wheelchair": "yes", "website": "https://qtopia.ch/", "wheelchair": "yes", "wikidata": "Q47354394"}}, {"type": "node", "id": 271182475, "lat": 47.1055786, "lon": 6.8297655, "tags": {"amenity": "cinema", "created_by": "Potlatch 0.10e", "name": "ABC", "wikidata": "Q47354342"}}, {"type": "node", "id": 273141751, "lat": 47.3862217, "lon": 9.2798233, "tags": {"amenity": "cinema", "name": "Cinetreff", "payment:maestro": "yes", "payment:mastercard": "yes", "payment:postfinance_card": "yes", "payment:visa": "yes", "payment:visa_electron": "yes"}}, {"type": "node", "id": 282774238, "lat": 46.9469716, "lon": 7.4354296, "tags": {"addr:city": "Bern", "addr:housenumber": "4", "addr:postcode": "3011", "addr:street": "Seilerstrasse", "alt_name": "Movie 1", "amenity": "cinema", "cinema:capacity": "156", "contact:addr": "Seilerstrasse 4, 3011 Bern", "contact:phone": "+41 31 3861717", "name": "cineMovie 1", "operator": "Quinnie Cinemas", "source": "survey and website", "website": "https://www.quinnie.ch/de/component/content/article/47-bern/ueber-uns/166-cinemovie1.html?Itemid=166", "wheelchair": "limited"}}, {"type": "node", "id": 282774239, "lat": 46.946343, "lon": 7.4350127, "tags": {"addr:city": "Bern", "addr:country": "CH", "addr:housenumber": "8", "addr:postcode": "3011", "addr:street": "Seilerstrasse", "alt_name": "Camera", "amenity": "cinema", "cinema:capacity": "152", "contact:phone": "+41 31 3861717", "name": "cineCamera", "operator": "Quinnie Cinemas", "source": "survey and website", "website": "https://www.quinnie.ch/de/component/content/article/47-bern/ueber-uns/163-cinecamera.html?Itemid=163", "wikidata": "Q35719722"}}, {"type": "node", "id": 282774265, "lat": 46.9467086, "lon": 7.4572711, "tags": {"addr:city": "Bern", "addr:housenumber": "7", "addr:postcode": "3011", "addr:street": "Wasserwerkgasse", "amenity": "cinema", "contact:addr": "Wasserwerkgasse 7, 3011 Bern", "contact:email": "kino@cinematte.ch", "contact:fax": "+41 31 3124549", "contact:phone": "+41 31 3124546", "name": "Cin\u00e9matte", "source": "survey and website", "website": "https://www.cinematte.ch/kino", "wheelchair": "limited", "wikidata": "Q35719985"}}, {"type": "node", "id": 283192423, "lat": 46.6589726, "lon": 6.5166993, "tags": {"addr:city": "La Sarraz", "addr:postcode": "1315", "addr:street": "Route d'Ecl\u00e9pens", "amenity": "cinema", "name": "Casino", "phone": "+41 (0) 21 866 62 56", "website": "https://www.cinerive.com/", "wheelchair": "yes"}}, {"type": "node", "id": 286573024, "lat": 46.7538495, "lon": 8.0361624, "tags": {"addr:city": "Brienz", "addr:country": "CH", "addr:postcode": "3855", "addr:street": "Tunnelg\u00e4ssli", "amenity": "cinema", "contact:phone": "+43 33 951 20 44", "contact:website": "http://www.kinobrienz.ch", "email": "info@kinobrienz.ch", "name": "Kinotheater Brienz", "payment:cash": "yes", "payment:credit_cards": "yes", "payment:twint": "yes", "screen": "1", "website": "https://www.kinobrienz.ch", "wheelchair": "yes"}}, {"type": "node", "id": 287034838, "lat": 46.218446, "lon": 6.1137422, "tags": {"addr:city": "Gen\u00e8ve", "addr:housenumber": "27", "addr:postcode": "1211", "addr:street": "Avenue Louis-Casa\u00ef", "amenity": "cinema", "name": "Path\u00e9 Balexert", "wheelchair": "yes", "wikidata": "Q35721074"}}, {"type": "node", "id": 297991870, "lat": 47.2261412, "lon": 8.675732, "tags": {"amenity": "cinema", "name": "Schloss Kino", "wheelchair": "limited"}}, {"type": "node", "id": 298169838, "lat": 47.3723135, "lon": 8.5437395, "tags": {"addr:city": "Z\u00fcrich", "addr:country": "CH", "addr:housenumber": "13", "addr:postcode": "8001", "addr:street": "St\u00fcssihofstatt", "amenity": "cinema", "name": "St\u00fcssihof", "operator": "Arena Cinemas", "screen": "2", "wheelchair": "yes", "wikidata": "Q35722490"}}, {"type": "node", "id": 298173728, "lat": 47.3789283, "lon": 8.5271456, "tags": {"addr:city": "Z\u00fcrich", "addr:country": "CH", "addr:housenumber": "111", "addr:postcode": "8004", "addr:street": "Langstrasse", "amenity": "cinema", "min_age": "18", "name": "Roland", "opening_hours": "Mo-Su 10:30-23:30", "operator": "East Cinemas", "screen": "2", "wheelchair": "no"}}, {"type": "node", "id": 299411813, "lat": 47.3489232, "lon": 7.9118507, "tags": {"amenity": "cinema", "name": "Palace", "screen": "1"}}, {"type": "node", "id": 299411840, "lat": 47.3487861, "lon": 7.9105577, "tags": {"addr:city": "Olten", "addr:housenumber": "51", "addr:postcode": "4600", "addr:street": "Aarauerstrasse", "amenity": "cinema", "name": "Youcinema4", "old_name": "Tiffany3", "phone": "+41 900 246 362", "screen": "3", "wheelchair": "limited"}}, {"type": "node", "id": 299412030, "lat": 47.3504333, "lon": 7.9034386, "tags": {"amenity": "cinema", "name": "Lichtspiele", "operator": "Filmverein Lichtspiele", "screen": "1", "website": "http://www.lichtspiele-olten.ch", "wikidata": "Q47354370"}}, {"type": "node", "id": 299412088, "lat": 47.3518487, "lon": 7.9015339, "tags": {"amenity": "cinema", "name": "Capitol", "wheelchair": "no"}}, {"type": "node", "id": 308076092, "lat": 46.9438865, "lon": 7.3720683, "tags": {"addr:city": "Bern", "addr:housenumber": "102", "addr:postcode": "3027", "addr:street": "Riedbachstrasse", "amenity": "cinema", "brand": "Path\u00e9", "email": "westside@pathe.ch", "level": "0", "level:ref": "-1", "name": "Path\u00e9 Westside", "opening_hours": "Su-Th 09:30-00:30; Fr-Sa 09:30-03:00", "operator": "Path\u00e9 Suisse S.A.", "phone": "+41 31 560 70 70", "website": "https://www.pathe.ch/de/kinos/cinema-pathe-westside", "wheelchair": "yes", "wikidata": "Q35720165"}}, {"type": "node", "id": 308076879, "lat": 46.903234, "lon": 7.2397547, "tags": {"addr:city": "Laupen", "addr:housenumber": "6", "addr:postcode": "3177", "addr:street": "Grabenweg", "amenity": "cinema", "name": "Kino Hirschen"}}, {"type": "node", "id": 310097392, "lat": 47.4785544, "lon": 8.3056006, "tags": {"addr:city": "Baden", "addr:housenumber": "1", "addr:postcode": "5400", "addr:street": "Brown Boveri Platz", "alt_name": "Trafo Kino", "amenity": "cinema", "email": "info@sterk.ch", "name": "Trafo Kino", "phone": "+41 56 204 04 00", "screen": "5", "website": "https://www.sterk.ch", "wheelchair": "yes", "wikidata": "Q35719209"}}, {"type": "node", "id": 311643066, "lat": 47.2862892, "lon": 7.9458465, "tags": {"amenity": "cinema", "name": "Capitol"}}, {"type": "node", "id": 312520904, "lat": 46.9474306, "lon": 7.4368668, "tags": {"addr:city": "Bern", "addr:housenumber": "2", "addr:postcode": "3008", "addr:street": "Laupenstrasse", "alt_name": "Bubenberg", "amenity": "cinema", "cinema:capacity": "348", "contact:addr": "Bubenberghaus, Laupenstrasse 2, 3008 Bern", "contact:phone": "+41 31 3861717", "name": "cineBubenberg", "opening_hours": "\"30 minutes before the first screening\"", "operator": "Quinnie Cinema Films Ltd.", "source": "survey and website", "start_date": "1923", "website": "https://www.quinnie.ch/de/component/content/article/47-bern/ueber-uns/161-cinebubenberg.html?Itemid=161", "wheelchair": "yes", "wikidata": "Q35719838"}}, {"type": "node", "id": 317473321, "lat": 46.0955988, "lon": 7.2294318, "tags": {"amenity": "cinema", "name": "Cin\u00e9ma de Verbier", "wikidata": "Q47354328"}}, {"type": "node", "id": 327328620, "lat": 46.6405773, "lon": 6.6349202, "tags": {"addr:city": "Echallens", "addr:housenumber": "4", "addr:postcode": "1040", "addr:street": "Passage du Lion d'Or", "amenity": "cinema", "contact:facebook": "https://www.facebook.com/cinemaechallensparadiso", "contact:instagram": "https://www.instagram.com/cinemaechallens/", "name": "Cin\u00e9ma d'Echallens", "phone": "+41 21 881 15 47", "website": "https://www.cinemaechallens.com/", "wheelchair": "yes"}}, {"type": "node", "id": 330936823, "lat": 47.3219783, "lon": 8.7973823, "tags": {"addr:city": "Wetzikon", "addr:country": "CH", "addr:housenumber": "70", "addr:postcode": "8620", "addr:street": "Bahnhofstrasse", "amenity": "cinema", "name": "Kino Palace", "opening_hours": "Mo,Tu,Th-Sa 15:00-23:30; Tu,Sa 14:00-23:30; Su 14:00-21:00", "wheelchair": "no"}}, {"type": "node", "id": 354838256, "lat": 47.4627741, "lon": 7.810396, "tags": {"amenity": "cinema", "name": "Palace", "wikidata": "Q47354376"}}, {"type": "node", "id": 357141606, "lat": 47.2052854, "lon": 7.5476716, "tags": {"amenity": "cinema", "created_by": "Merkaartor 0.14", "name": "Canva"}}, {"type": "node", "id": 364178565, "lat": 47.5293624, "lon": 8.5834002, "tags": {"amenity": "cinema", "contact:email": "neueskino@langfilm.ch", "contact:phone": "+41 44 865 66 71", "contact:website": "http://www.neueskino.ch", "name": "Neues Kino", "wikidata": "Q47354399"}}, {"type": "node", "id": 366033070, "lat": 46.6855476, "lon": 7.6821812, "tags": {"amenity": "cinema", "name": "Movieworld", "operator": "Fam. Balmer", "toilets:wheelchair": "yes", "wheelchair": "yes"}}, {"type": "node", "id": 366576736, "lat": 47.0998172, "lon": 6.8232796, "tags": {"amenity": "cinema", "name": "Plaza", "operator": "Cinepel SA", "screen": "1", "wheelchair": "no", "wikidata": "Q35721216"}}, {"type": "node", "id": 368207558, "lat": 46.0059164, "lon": 8.9538275, "tags": {"amenity": "cinema", "name": "Cinema Corso", "wikidata": "Q47354424"}}, {"type": "node", "id": 368354953, "lat": 46.9925409, "lon": 6.9329501, "tags": {"amenity": "cinema", "name": "Rex", "operator": "Cinepel SA", "screen": "1", "wheelchair": "no"}}, {"type": "node", "id": 368354954, "lat": 46.9927933, "lon": 6.9343981, "tags": {"amenity": "cinema", "name": "Apollo 123", "operator": "Cinepel SA", "screen": "3", "wheelchair": "limited"}}, {"type": "node", "id": 370383056, "lat": 46.4609169, "lon": 6.8412193, "tags": {"amenity": "cinema", "name": "Rex 4", "toilets:wheelchair": "no", "website": "https://cinerive.ch", "wheelchair": "no"}}, {"type": "node", "id": 370383061, "lat": 46.461226, "lon": 6.8410992, "tags": {"amenity": "cinema", "drive_in": "no", "name": "Rex 1-2-3", "open_air": "no", "screen": "3", "website": "https://cinerive.com", "wheelchair": "limited", "wheelchair:description": "Acc\u00e8s handicap\u00e9 : salle 1 & Restaurant", "wikidata": "Q35721898"}}, {"type": "node", "id": 372463170, "lat": 47.4374301, "lon": 9.1329937, "tags": {"amenity": "cinema", "name": "Kino City", "website": "https://kino-city.ch"}}, {"type": "node", "id": 373865639, "lat": 47.4265304, "lon": 9.3762705, "tags": {"amenity": "cinema", "brand": "blue Cinema", "name": "Scala", "operator": "KITAG Kino-Theater AG", "screen": "6", "website": "https://www.bluecinema.ch/de/kinos-und-infos/kinos/scala/", "wheelchair": "limited", "wikidata": "Q47361558"}}, {"type": "node", "id": 412547890, "lat": 47.0075773, "lon": 7.1036776, "tags": {"amenity": "cinema", "name": "InsKino", "wheelchair": "yes", "wikidata": "Q47354350"}}, {"type": "node", "id": 413370656, "lat": 46.2913244, "lon": 7.8842139, "tags": {"amenity": "cinema", "name": "Astoria", "wheelchair": "yes"}}, {"type": "node", "id": 422637850, "lat": 46.2517907, "lon": 7.0119894, "tags": {"amenity": "cinema", "name": "Grain d'Sel"}}, {"type": "node", "id": 423833240, "lat": 46.9920613, "lon": 6.9329617, "tags": {"amenity": "cinema", "name": "Studio", "operator": "Cinepel SA", "screen": "1", "wheelchair": "no"}}, {"type": "node", "id": 427787437, "lat": 46.4743275, "lon": 7.1282166, "tags": {"addr:city": "Ch\u00e2teau-d'Oex", "addr:country": "CH", "addr:housenumber": "11", "addr:postcode": "1660", "addr:street": "Route du Cin\u00e9ma", "amenity": "cinema", "capacity": "180", "name": "Eden Cin\u00e9ma", "opening_hours:signed": "no", "phone": "+41 26 924 32 65", "screen": "1", "wheelchair": "yes", "wikidata": "Q35720470"}}, {"type": "node", "id": 428246731, "lat": 46.3831802, "lon": 6.2383487, "tags": {"amenity": "cinema", "name": "Capitole", "phone": "+41 22 566 30 71", "website": "http://www.cinema-capitole.ch/", "wikidata": "Q35721663"}}, {"type": "node", "id": 428476754, "lat": 47.5759038, "lon": 7.5881025, "tags": {"addr:city": "Basel", "addr:housenumber": "247", "addr:street": "Klybeckstrasse", "amenity": "cinema", "name": "neues kino Basel", "payment:cash": "yes", "website": "https://neueskinobasel.ch", "wikidata": "Q47354375"}}, {"type": "node", "id": 429232015, "lat": 46.9532394, "lon": 7.4404262, "tags": {"addr:city": "Bern", "addr:country": "CH", "addr:housenumber": "8", "addr:postcode": "3012", "addr:street": "Neubr\u00fcckstrasse", "amenity": "cinema", "contact:email": "kino@reitschule.ch", "entrance": "yes", "name": "Kino in der Reitschule", "opening_hours": "\"by appointment\"", "source": "survey and website", "website": "http://reitschule.ch/reitschule/kino/", "wheelchair": "yes", "wikidata": "Q35719931"}}, {"type": "node", "id": 432588845, "lat": 46.7579302, "lon": 7.6321449, "tags": {"amenity": "cinema", "name": "Lauitor", "wheelchair": "limited"}}, {"type": "node", "id": 439137452, "lat": 47.0995937, "lon": 6.8236549, "tags": {"amenity": "cinema", "disused": "yes", "name": "Eden", "operator": "Cinepel SA", "screen": "1", "wheelchair": "no", "wikidata": "Q35721191"}}, {"type": "node", "id": 442586095, "lat": 46.9922755, "lon": 6.9317084, "tags": {"amenity": "cinema", "name": "Arcades", "opening_hours": "Mo-Fr 09:30-12:00,14:00-17:00", "operator": "Cinepel SA", "screen": "1", "wheelchair": "no", "wikidata": "Q47354339"}}, {"type": "node", "id": 442702211, "lat": 47.0689741, "lon": 8.2803073, "tags": {"amenity": "cinema", "brand": "blue Cinema", "name": "Maxx", "operator": "KITAG Kino-Theater AG", "website": "https://www.bluecinema.ch/de/kinos-und-infos/kinos/maxx/", "wheelchair": "yes", "wikidata": "Q47361272"}}, {"type": "node", "id": 444434140, "lat": 46.9466136, "lon": 7.4392788, "tags": {"addr:street": "Schwanengasse", "amenity": "cinema", "contact:addr": "Schwanengasse 9, 3011 Bern", "contact:phone": "+41 31 3117575", "name": "REX", "website": "https://www.rexbern.ch/", "wheelchair": "limited"}}, {"type": "node", "id": 476554694, "lat": 46.7962329, "lon": 9.8221233, "tags": {"amenity": "cinema", "name": "Kino Kulturplatz Davos", "website": "https://www.kulturplatz-davos.ch/de/programm?ressort=Kino", "wheelchair": "yes"}}, {"type": "node", "id": 478665196, "lat": 46.4615451, "lon": 6.8424739, "tags": {"amenity": "cinema", "capacity": "244", "drive_in": "no", "name": "Astor", "open_air": "no", "phone": "+41 21 925 88 88", "screen": "1", "toilets:wheelchair": "no", "website": "https://cinerive.com/", "wheelchair": "yes", "wikidata": "Q35721870"}}, {"type": "node", "id": 479258514, "lat": 47.0591306, "lon": 7.623426, "tags": {"amenity": "cinema", "name": "Rex"}}, {"type": "node", "id": 479258537, "lat": 47.0561928, "lon": 7.6275006, "tags": {"amenity": "cinema", "name": "Krone"}}, {"type": "node", "id": 495167079, "lat": 46.7248776, "lon": 6.5311846, "tags": {"amenity": "cinema", "name": "Urba"}}, {"type": "node", "id": 506053166, "lat": 46.8520305, "lon": 9.5338076, "tags": {"amenity": "cinema", "name": "Quader Kino", "wheelchair": "limited"}}, {"type": "node", "id": 506878643, "lat": 47.0459605, "lon": 8.3099514, "tags": {"amenity": "cinema", "brand": "blue Cinema", "name": "Capitol", "opening_hours": "\"\u00d6ffnet t\u00e4glich eine Stunde vor Vorstellungsbeginn\"", "operator": "KITAG Kino-Theater AG", "website": "https://www.bluecinema.ch/de/kinos-und-infos/kinos/capitol/", "wheelchair": "no", "wikidata": "Q47361129"}}, {"type": "node", "id": 507255189, "lat": 47.0432767, "lon": 8.3239002, "tags": {"amenity": "cinema", "name": "Open Air Kino", "note": "Nur Juli + August"}}, {"type": "node", "id": 514584989, "lat": 46.9569654, "lon": 7.4529404, "tags": {"addr:city": "Bern", "addr:housenumber": "24", "addr:postcode": "3014", "addr:street": "Moserstrasse", "alt_name": "Kino ABC", "amenity": "cinema", "contact:addr:full": "Moserstrasse 24, 3014 Bern", "contact:fax": "+41 31 3313037", "contact:phone": "+41 31 3324142", "name": "cineABC", "old_name": "Kino Viktoria", "opening_hours": "\"It opens 30 minutes before the movie\"", "operator": "Quinnie", "source": "survey and website", "website": "https://www.quinnie.ch/de/component/content/article/47-bern/ueber-uns/162-cineabc.html?Itemid=161", "wheelchair": "yes", "wikidata": "Q35719691"}}, {"type": "node", "id": 528121900, "lat": 47.1202035, "lon": 7.9939486, "tags": {"amenity": "cinema", "name": "cinebar", "website": "https://cinebar.ch"}}, {"type": "node", "id": 539757399, "lat": 46.1033116, "lon": 7.0753511, "tags": {"amenity": "cinema", "name": "Casino", "wikidata": "Q47354326"}}, {"type": "node", "id": 558737508, "lat": 46.8820538, "lon": 7.6222485, "tags": {"amenity": "cinema", "name": "Gr\u00fcnegg", "wheelchair": "no"}}, {"type": "node", "id": 562623387, "lat": 47.0569309, "lon": 8.3112805, "tags": {"amenity": "cinema", "name": "Bourbaki", "wheelchair": "yes"}}, {"type": "node", "id": 568000459, "lat": 47.4985943, "lon": 8.7314998, "tags": {"amenity": "cinema", "name": "Loge"}}, {"type": "node", "id": 571474222, "lat": 46.9931699, "lon": 6.9350376, "tags": {"amenity": "cinema", "name": "Bio", "operator": "Cinepel SA", "screen": "1", "wheelchair": "no"}}, {"type": "node", "id": 582822238, "lat": 46.1844029, "lon": 6.1414237, "tags": {"addr:city": "Carouge", "addr:country": "CH", "addr:housenumber": "47", "addr:postcode": "1227", "addr:street": "Rue Saint-Joseph", "amenity": "cinema", "name": "Cinema Bio", "note": "surveyed by Alex-7", "source": "survey", "survey:date": "2013-01-22", "toilets:wheelchair": "yes", "website": "http://www.cinema-bio.ch", "wheelchair": "yes", "wheelchair:description": "Entr\u00e9e FR sur Place du March\u00e9", "wikidata": "Q35720682"}}, {"type": "node", "id": 593094109, "lat": 47.5525383, "lon": 7.588165, "tags": {"addr:city": "Basel", "addr:housenumber": "36", "addr:postcode": "4051", "addr:street": "Steinenvorstadt", "amenity": "cinema", "brand": "blue Cinema", "name": "Capitol", "operator": "KITAG Kino-Theater AG", "website": "https://www.bluecinema.ch/de/kinos-und-infos/kinos/capitol/", "wheelchair": "limited", "wikidata": "Q35719239"}}, {"type": "node", "id": 598706344, "lat": 47.3650228, "lon": 7.3423728, "tags": {"addr:city": "Del\u00e9mont", "addr:housenumber": "13", "addr:postcode": "2800", "addr:street": "Rue des Granges", "amenity": "cinema", "name": "La Grange", "phone": "+41 32 422 11 29", "website": "https://cinelagrange.ch/", "wikidata": "Q35720499"}}, {"type": "node", "id": 599221086, "lat": 46.3160921, "lon": 6.9631181, "tags": {"amenity": "cinema", "name": "Cosmopolis", "wikidata": "Q35718926"}}, {"type": "node", "id": 600072321, "lat": 47.4132452, "lon": 9.6301885, "tags": {"amenity": "cinema", "name": "Madlen", "wheelchair": "no"}}, {"type": "node", "id": 612800466, "lat": 46.2308149, "lon": 7.3611214, "tags": {"amenity": "cinema", "name": "Lux", "wikidata": "Q47354332"}}, {"type": "node", "id": 612800467, "lat": 46.2305033, "lon": 7.360835, "tags": {"amenity": "cinema", "name": "C\u00e8dres", "website": "http://cinesion.ch"}}, {"type": "node", "id": 616206758, "lat": 47.169234, "lon": 8.5149801, "tags": {"addr:city": "Zug", "addr:housenumber": "8", "addr:postcode": "6300", "addr:street": "Schmidgasse", "amenity": "cinema", "name": "Seehof", "toilets:wheelchair": "yes", "website": "https://www.kinozug.ch/", "wheelchair": "yes", "wikidata": "Q47354392"}}, {"type": "node", "id": 662020252, "lat": 47.1724491, "lon": 8.5150843, "tags": {"addr:city": "Zug", "addr:housenumber": "18", "addr:postcode": "6300", "addr:street": "Gotthardstrasse", "amenity": "cinema", "name": "Kino Gotthard", "opening_hours": "\"30 Minuten vor Beginn der Vorstellung\"", "website": "https://www.kinozug.ch/", "wheelchair": "no"}}, {"type": "node", "id": 672873622, "lat": 47.3584763, "lon": 8.5225654, "tags": {"addr:city": "Z\u00fcrich", "addr:country": "CH", "addr:housenumber": "8", "addr:place": "Sihlcity", "addr:postcode": "8045", "addr:street": "Kalanderplatz", "amenity": "cinema", "name": "Arena Filmcity", "opening_hours": "Su-Th 10:00-21:00; Fr-Sa 10:00-23:45", "operator": "Arena Cinemas", "phone": "+41 900 912 912", "screen": "18", "toilets:wheelchair": "yes", "website": "https://www.arena.ch/", "wheelchair": "yes", "wheelchair:places": "1-6 pro Kino", "wheelchair:source": "http://www.arena.ch/kinorundgang/saalplaene", "wikidata": "Q35721927"}}, {"type": "node", "id": 684592996, "lat": 47.2016338, "lon": 7.5289007, "tags": {"amenity": "cinema", "name": "Casablanca", "website": "http://www.kinosolothurn.ch/index.php?id=64"}}, {"type": "node", "id": 689035911, "lat": 46.1737666, "lon": 8.8018956, "tags": {"addr:city": "Muralto", "addr:country": "CH", "addr:housenumber": "1", "addr:postcode": "6600", "addr:street": "Via San Gottardo", "amenity": "cinema", "name": "Rialto il Cinema", "screen": "3", "website": "http://rialtoilcinema.ch/", "wikidata": "Q47354421"}}, {"type": "node", "id": 703567260, "lat": 47.135983, "lon": 7.2449354, "tags": {"addr:city": "Biel/Bienne", "addr:housenumber": "92", "addr:postcode": "2502", "addr:street": "Unterer Quai", "addr:street:fr": "Quai du Bas", "amenity": "cinema", "name": "Rex 1&2", "operator": "Cinevital AG", "payment:cash": "yes", "payment:credit_cards": "no", "payment:debit_cards": "yes", "phone": "+41323223877"}}, {"type": "node", "id": 703567377, "lat": 47.1367203, "lon": 7.247352, "tags": {"addr:city": "Biel/Bienne", "addr:housenumber": "51", "addr:street": "Zentralstrasse", "amenity": "cinema", "name": "Apollo", "operator": "Cinevital AG", "phone": "+41323226110", "wheelchair": "limited", "wikidata": "Q35720281"}}, {"type": "node", "id": 703567556, "lat": 47.1379348, "lon": 7.2454009, "tags": {"addr:housenumber": "32", "addr:street": "Zentralstrasse", "amenity": "cinema", "name": "Lido 1&2", "operator": "Cinevital AG", "phone": "+41323236655"}}, {"type": "node", "id": 738015141, "lat": 46.5284809, "lon": 8.6117545, "tags": {"addr:city": "Airolo", "addr:country": "CH", "addr:postcode": "6780", "addr:street": "Via della Stazione", "amenity": "cinema", "name": "Cinema Leventina", "phone": "+41 91 869 24 04", "website": "https://www.cinemaleventina.ch/"}}, {"type": "node", "id": 806388116, "lat": 46.1560957, "lon": 8.7701417, "tags": {"amenity": "cinema", "name": "Otello"}}, {"type": "node", "id": 812018180, "lat": 46.2514535, "lon": 6.9475342, "tags": {"amenity": "cinema", "name": "Plaza", "phone": "+41 24 471 22 61"}}, {"type": "node", "id": 854338597, "lat": 47.3945119, "lon": 8.0511176, "tags": {"addr:city": "Aarau", "addr:country": "CH", "addr:housenumber": "85", "addr:postcode": "5000", "addr:street": "Laurenzenvorstadt", "amenity": "cinema", "email": "ffa@freierfilm.ch", "fax": "+41 62 824 81 06", "name": "Freier Film", "phone": "+41 62 824 81 16", "website": "http://www.freierfilm.ch/", "wikidata": "Q47354382"}}, {"type": "node", "id": 911773743, "lat": 47.4983781, "lon": 8.7211099, "tags": {"addr:housenumber": "1", "addr:street": "Z\u00fcrcherstrasse", "amenity": "cinema", "brand": "blue Cinema", "name": "Maxx", "operator": "KITAG Kino-Theater AG", "website": "https://www.bluecinema.ch/de/kinos-und-infos/kinos/maxx/", "wheelchair": "yes", "wikidata": "Q47361383"}}, {"type": "node", "id": 912524709, "lat": 46.5240745, "lon": 6.6273157, "tags": {"addr:housenumber": "4", "addr:street": "Rue du Maupas", "amenity": "cinema", "name": "Zin\u00e9ma", "phone": "+41 21 311 29 30", "phone_1": "+41 76 567 12 91", "website": "http://zinema.ch/", "wikidata": "Q35721436"}}, {"type": "node", "id": 943126505, "lat": 46.2022469, "lon": 6.1567045, "tags": {"addr:city": "Gen\u00e8ve", "addr:housenumber": "3", "addr:postcode": "1207", "addr:street": "Place des Eaux-Vives", "amenity": "cinema", "designation": "Cinema City", "name": "Le City", "payment:cash": "yes", "phone": "+41  22 736 89 20", "screen": "1", "website": "http://www.les-scala.ch/", "wikidata": "Q35720796"}}, {"type": "node", "id": 958784979, "lat": 47.3112019, "lon": 7.9347453, "tags": {"addr:city": "Oftringen", "addr:housenumber": "52", "addr:postcode": "4665", "addr:street": "Z\u00fcrichstrasse", "amenity": "cinema", "name": "Youcinema Oftringen"}}, {"type": "node", "id": 959680094, "lat": 47.4217786, "lon": 9.3658039, "tags": {"amenity": "cinema", "name": "KinoK", "website": "https://www.kinok.ch/", "wheelchair": "yes", "wikidata": "Q14537959"}}, {"type": "node", "id": 1017728319, "lat": 46.2080991, "lon": 6.1433081, "tags": {"amenity": "cinema", "name": "Cin\u00e9ma Central", "wikidata": "Q35720770"}}, {"type": "node", "id": 1027880740, "lat": 46.9368309, "lon": 7.7872447, "tags": {"amenity": "cinema", "name": "Kupferschmiede Langnau"}}, {"type": "node", "id": 1028104098, "lat": 47.3663927, "lon": 8.5467443, "tags": {"addr:city": "Z\u00fcrich", "addr:country": "CH", "addr:housenumber": "10", "addr:postcode": "8001", "addr:street": "Theaterstrasse", "amenity": "cinema", "brand": "blue Cinema", "name": "Corso", "opening_hours:signed": "no", "operator": "KITAG Kino-Theater AG", "screen": "4", "toilets:wheelchair": "yes", "website": "https://www.bluecinema.ch/de/kinos-und-infos/kinos/corso/", "wheelchair": "yes", "wheelchair:description": "Corso 1: 4 Pl\u00e4tze;Corso 2-4: je 2 Pl\u00e4tze, welche nur \u00fcber einen Lift (max. 225kg) erreichbar sind", "wheelchair:places": "2-4 pro Kino", "wheelchair:source": "http://www.kitag.com/Informationen/Rollstuhlplaetze/Zuerich.aspx", "wikidata": "Q29933661"}}, {"type": "node", "id": 1028113949, "lat": 47.3778748, "lon": 8.5441127, "tags": {"addr:city": "Z\u00fcrich", "addr:country": "CH", "addr:housenumber": "9", "addr:postcode": "8001", "addr:street": "Weinbergstrasse", "amenity": "cinema", "brand": "blue Cinema", "name": "Capitol", "operator": "KITAG Kino-Theater AG", "screen": "6", "website": "https://www.bluecinema.ch/de/kinos-und-infos/kinos/capitol/", "wheelchair": "no"}}, {"type": "node", "id": 1059571390, "lat": 46.9481882, "lon": 7.450889, "tags": {"addr:city": "Bern", "addr:floor": "-1", "addr:housenumber": "26", "addr:postcode": "3011", "addr:street": "Kramgasse", "amenity": "cinema", "contact:addr": "Kramgasse 26, 3011 Bern", "contact:email": "info@kellerkino.ch", "contact:phone": "+41 31 3113805", "contact:website": "http://www.kellerkino.ch", "name": "Kellerkino", "smoking": "no", "source": "survey and website", "website": "http://www.kellerkino.ch/", "wheelchair": "no", "wikidata": "Q35720101"}}, {"type": "node", "id": 1069585287, "lat": 47.371532, "lon": 8.5368324, "tags": {"addr:city": "Z\u00fcrich", "addr:country": "CH", "addr:housenumber": "11", "addr:postcode": "8001", "addr:street": "N\u00fcschelerstrasse", "amenity": "cinema", "name": "Filmpodium", "old_name": "Studio 4", "opening_hours": "Mo,Tu 17:00-18:00+; We-Su 14:00-18:00+", "screen": "1", "website": "https://www.filmpodium.ch/", "wheelchair": "yes", "wikidata": "Q35722041"}}, {"type": "node", "id": 1069585307, "lat": 47.3752543, "lon": 8.5261232, "tags": {"addr:city": "Z\u00fcrich", "addr:country": "CH", "addr:housenumber": "52", "addr:postcode": "8004", "addr:street": "Kanzleistrasse", "amenity": "cinema", "name": "Xenix", "website": "https://www.xenix.ch", "wheelchair": "yes", "wikidata": "Q15136000"}}, {"type": "node", "id": 1069585320, "lat": 47.3741491, "lon": 8.5212992, "tags": {"addr:city": "Z\u00fcrich", "addr:country": "CH", "addr:housenumber": "3", "addr:postcode": "8004", "addr:street": "Kalkbreitestrasse", "alt_name": "Studio Uto", "amenity": "cinema", "name": "Arthouse Uto", "opening_hours": "\"30min vor ersten Vorstellung\"", "operator": "Arthouse Commercio Movie AG", "screen": "1", "toilets:wheelchair": "no", "website": "https://www.arthouse.ch/", "wheelchair": "yes", "wikidata": "Q35722518"}}, {"type": "node", "id": 1069585330, "lat": 47.3707094, "lon": 8.5436349, "tags": {"addr:city": "Z\u00fcrich", "addr:country": "CH", "addr:housenumber": "4", "addr:postcode": "8001", "addr:street": "N\u00e4gelihof", "amenity": "cinema", "name": "Arthouse Movie", "operator": "Arthouse Commercio Movie AG", "screen": "2", "website": "https://www.arthouse.ch/", "wheelchair": "no", "wheelchair:source": "http://www.arthouse.ch/pdf/kinomiete_v1.pdf", "wikidata": "Q35721957"}}, {"type": "node", "id": 1069585345, "lat": 47.3737562, "lon": 8.5307154, "tags": {"addr:city": "Z\u00fcrich", "addr:country": "CH", "addr:housenumber": "16", "addr:postcode": "8004", "addr:street": "Badenerstrasse", "amenity": "cinema", "brand": "blue Cinema", "name": "Metropol", "operator": "KITAG Kino-Theater AG", "screen": "2", "toilets:wheelchair": "yes", "website": "https://www.bluecinema.ch/de/kinos-und-infos/kinos/metropol/", "wheelchair": "limited", "wheelchair:description": "metropol 1: rollstuhlg\u00e4ngig;metropol 2: nicht rollstuhlg\u00e4ngig", "wheelchair:places": "0-6 pro Kino", "wheelchair:source": "http://www.kitag.com/Informationen/Rollstuhlplaetze/Zuerich.aspx"}}, {"type": "node", "id": 1069585357, "lat": 47.3828111, "lon": 8.5289861, "tags": {"addr:city": "Z\u00fcrich", "addr:country": "CH", "addr:housenumber": "57-63", "addr:postcode": "8005", "addr:street": "Neugasse", "amenity": "cinema", "name": "Riffraff 3 + 4", "opening_hours": "Mo-Th 11:00-24:00, Fr 11:00-02:00, Sa 10:00-02:00, Su 10:00-24:00", "operator": "Neugass Kino AG", "screen": "2", "website": "https://www.riffraff.ch/", "wheelchair": "limited", "wheelchair:places": "yes", "wheelchair:source": "http://www.riffraff.ch/service/technik/riffraff_1.html", "wikidata": "Q35722434"}}, {"type": "node", "id": 1069585382, "lat": 47.3659676, "lon": 8.5488592, "tags": {"addr:city": "Z\u00fcrich", "addr:country": "CH", "addr:housenumber": "2", "addr:postcode": "8008", "addr:street": "M\u00fchlebachstrasse", "amenity": "cinema", "name": "Arthouse Piccadilly 1", "operator": "Arthouse Commercio Movie AG", "screen": "1", "website": "https://www.arthouse.ch/", "wheelchair": "yes", "wheelchair:places": "yes", "wheelchair:source": "http://www.arthouse.ch/pdf/kinomiete_v1.pdf", "wikidata": "Q35722315"}}, {"type": "node", "id": 1069585385, "lat": 47.3659867, "lon": 8.5489827, "tags": {"addr:city": "Z\u00fcrich", "addr:country": "CH", "addr:housenumber": "2", "addr:postcode": "8008", "addr:street": "M\u00fchlebachstrasse", "amenity": "cinema", "name": "Arthouse Piccadilly 2", "operator": "Arthouse Commercio Movie AG", "screen": "1", "website": "https://www.arthouse.ch/", "wheelchair": "limited", "wheelchair:description": "1 Stufe beim Eingang; nicht f\u00fcr Elektrorollst\u00fchle geeignet", "wheelchair:places": "yes", "wheelchair:source": "http://www.arthouse.ch/pdf/kinomiete_v1.pdf"}}, {"type": "node", "id": 1069585402, "lat": 47.3761922, "lon": 8.544686, "tags": {"addr:city": "Z\u00fcrich", "addr:country": "CH", "addr:housenumber": "44", "addr:postcode": "8001", "addr:street": "Z\u00e4hringerstrasse", "amenity": "cinema", "name": "Arthouse Alba", "operator": "Arthouse Commercio Movie AG", "screen": "1", "toilets:wheelchair": "no", "website": "https://www.arthouse.ch/", "wheelchair": "limited", "wheelchair:description": "Parterre rollstuhlg\u00e4ngig", "wheelchair:places": "yes", "wheelchair:source": "http://www.arthouse.ch/pdf/kinomiete_v1.pdf", "wikidata": "Q35722072"}}, {"type": "node", "id": 1069585412, "lat": 47.3663519, "lon": 8.5474257, "tags": {"addr:city": "Z\u00fcrich", "addr:country": "CH", "addr:housenumber": "7", "addr:postcode": "8001", "addr:street": "Gottfried-Keller-Strasse", "amenity": "cinema", "name": "Arthouse Le Paris", "opening_hours:signed": "no", "operator": "Arthouse Commercio Movie AG", "screen": "1", "toilets:wheelchair": "no", "website": "https://www.arthouse.ch/", "wheelchair": "limited", "wheelchair:description": "Parterre rollstuhlg\u00e4ngig", "wheelchair:places": "yes", "wheelchair:source": "http://www.arthouse.ch/pdf/kinomiete_v1.pdf", "wikidata": "Q35722218"}}, {"type": "node", "id": 1069585416, "lat": 47.389247, "lon": 8.521539, "tags": {"addr:city": "Z\u00fcrich", "addr:country": "CH", "addr:housenumber": "269", "addr:postcode": "8005", "addr:street": "Heinrichstrasse", "amenity": "cinema", "brand": "blue Cinema", "name": "Abaton", "old_name": "Cinemax", "operator": "KITAG Kino-Theater AG", "screen": "12", "toilets:wheelchair": "yes", "website": "https://www.bluecinema.ch/de/kinos-und-infos/kinos/abaton/", "wheelchair": "yes", "wheelchair:places": "1-4 pro Kino", "wheelchair:source": "http://www.kitag.com/Informationen/Rollstuhlplaetze/Zuerich.aspx"}}, {"type": "node", "id": 1069585421, "lat": 47.3826641, "lon": 8.5293328, "tags": {"addr:city": "Z\u00fcrich", "addr:country": "CH", "addr:housenumber": "57-63", "addr:postcode": "8005", "addr:street": "Neugasse", "amenity": "cinema", "name": "Riffraff 1 + 2", "opening_hours": "Fr,Sa 17:00-02:00, Su-Th 17:00-24:00", "operator": "Neugass Kino AG", "screen": "2", "toilets:wheelchair": "yes", "website": "https://www.riffraff.ch/", "wheelchair": "limited", "wheelchair:description": "Riffraff 1: rollstuhlg\u00e4ngig; Riffraff 2: nicht rollstuhlg\u00e4ngig", "wheelchair:source": "http://www.riffraff.ch/service/technik/riffraff_1.html", "wikidata": "Q35722434"}}, {"type": "node", "id": 1103519400, "lat": 46.8885772, "lon": 8.244953, "tags": {"addr:city": "Sarnen", "addr:housenumber": "1", "addr:postcode": "6060", "addr:street": "Seestrasse", "amenity": "cinema", "name": "Seefeld", "website": "http://kinoseefeld.ch/", "wheelchair": "limited"}}, {"type": "node", "id": 1143613139, "lat": 47.5398965, "lon": 7.5770101, "tags": {"amenity": "cinema"}}, {"type": "node", "id": 1152744827, "lat": 46.77473, "lon": 9.2049444, "tags": {"amenity": "cinema", "name": "Cinema Sil Plaz", "wikidata": "Q47354415"}}, {"type": "node", "id": 1241605940, "lat": 46.8236509, "lon": 6.5007232, "tags": {"addr:city": "Sainte-Croix", "addr:country": "CH", "addr:postcode": "1450", "addr:street": "Avenue de la Gare", "amenity": "cinema", "name": "Royal", "phone": "+41 24 454 22 49", "website": "https://www.cinemaroyal.ch/", "wikidata": "Q47354324"}}, {"type": "node", "id": 1261933574, "lat": 46.1950434, "lon": 9.0279397, "tags": {"addr:city": "Bellinzona", "addr:country": "CH", "addr:housenumber": "33", "addr:postcode": "6500", "addr:street": "Viale Stazione", "amenity": "cinema", "cinema:3D": "yes", "name": "Cinema Forum", "screen": "2", "website": "http://www.cinemaforum.ch", "wikidata": "Q56877179"}}, {"type": "node", "id": 1263754509, "lat": 46.5328738, "lon": 6.6308459, "tags": {"addr:housenumber": "4", "addr:street": "Route Aloys-Fauquez", "amenity": "cinema", "email": "info@cinemabellevaux.ch", "name": "Bellevaux", "phone": "+41 21 647 46 42", "website": "http://www.cinemabellevaux.ch/", "wikidata": "Q35721269"}}, {"type": "node", "id": 1274323366, "lat": 46.9470493, "lon": 7.4351594, "tags": {"addr:city": "Bern", "addr:country": "CH", "addr:full": "Laupenstrasse 17, 3008 Bern", "addr:housenumber": "17", "addr:postcode": "3008", "addr:street": "Laupenstrasse", "alt_name": "Club", "amenity": "cinema", "cinema:capacity": "330", "contact:phone": "+41 31 3861717", "name": "cineClub", "operator": "Quinnie Cinemas", "source": "survey and website", "website": "https://www.quinnie.ch/de/component/content/article/47-bern/ueber-uns/165-cineclub.html?Itemid=165", "wheelchair": "yes", "wikidata": "Q35719897"}}, {"type": "node", "id": 1406900341, "lat": 47.4813572, "lon": 8.2086549, "tags": {"addr:housenumber": "11", "addr:street": "Bahnhofplatz", "amenity": "cinema", "name": "Odeon Brugg", "wheelchair": "no", "wikidata": "Q47354379"}}, {"type": "node", "id": 1464505190, "lat": 46.2009726, "lon": 6.1399018, "tags": {"addr:city": "Gen\u00e8ve", "amenity": "cinema", "name": "Auditorium Fondation Arditi", "opening_hours": "\"Depends on movie schedule\""}}, {"type": "node", "id": 1464505195, "lat": 46.204122, "lon": 6.1581025, "tags": {"addr:city": "Gen\u00e8ve", "addr:housenumber": "27", "addr:postcode": "1207", "addr:street": "Rue des Eaux-Vives", "amenity": "cinema", "name": "Les Scala", "payment:cash": "yes", "phone": "+41 22 736 04 22", "screen": "3", "website": "http://www.les-scala.ch/", "wheelchair": "no", "wikidata": "Q35720935"}}, {"type": "node", "id": 1464820955, "lat": 46.2022861, "lon": 6.1437959, "tags": {"amenity": "cinema", "name": "Astor Film Lounge"}}, {"type": "node", "id": 1464820962, "lat": 46.2039211, "lon": 6.136084, "tags": {"amenity": "cinema", "name": "Spoutnik", "wikidata": "Q35720990"}}, {"type": "node", "id": 1464820975, "lat": 46.2124835, "lon": 6.1325489, "tags": {"addr:city": "Gen\u00e8ve", "addr:housenumber": "78", "addr:postcode": "1202", "addr:street": "Rue de la Servette", "amenity": "cinema", "name": "Le Nord-Sud", "payment:cash": "yes", "phone": "+41 22 733 19 00", "screen": "2", "website": "http://yellow.local.ch", "wikidata": "Q35720877"}}, {"type": "node", "id": 1464820980, "lat": 46.2011449, "lon": 6.1314837, "tags": {"addr:city": "Gen\u00e8ve", "addr:housenumber": "8", "addr:street": "Boulevard de Saint-Georges", "amenity": "cinema", "name": "Cin\u00e9lux", "note": "Heures d\u2019ouverture La caisse ouvre 15 minutes avant le d\u00e9but de la premi\u00e8re s\u00e9ance et ferme 30 minutes apr\u00e8s le lancement de la derni\u00e8re s\u00e9ance. Achat des billets En ligne \u00c0 la caisse, directement durant les heures d\u2019ouverture (paiement en esp\u00e8ce)", "payment:cash": "yes", "payment:coins": "yes", "website": "https://www.cinelux.ch", "wikidata": "Q35720621"}}, {"type": "node", "id": 1464820981, "lat": 46.2011175, "lon": 6.1415125, "tags": {"amenity": "cinema", "description": "Les Cin\u00e9mas du Gru\u0308tli proposent une programmation\u00a0qui s\u2019articule autour de cin\u00e9-clubs, de cycles de r\u00e9pertoire, de films pour le jeune public et de cin\u00e9ma art et essai.", "name": "Grutli", "opening_hours": "PH,Mo-Su 14:00-21:00+"}}, {"type": "node", "id": 1532775961, "lat": 47.5550972, "lon": 8.8969512, "tags": {"amenity": "cinema", "end_date": "2022-12-31", "name": "Schlosskino", "note": "Schlosskino is about to close down by the end of 2022", "website": "https://www.kino-tg.ch/infos/schlosskino-frauenfeld/", "wheelchair": "yes"}}, {"type": "node", "id": 1668069719, "lat": 46.8016841, "lon": 7.1515071, "tags": {"amenity": "cinema", "name": "Cin\u00e9motion REX", "wikidata": "Q47354336"}}, {"type": "node", "id": 1678259471, "lat": 47.2071345, "lon": 7.5403272, "tags": {"amenity": "cinema", "name": "Kino im Uferbau"}}, {"type": "node", "id": 1716282254, "lat": 46.5185518, "lon": 6.6357508, "tags": {"addr:city": "Lausanne", "addr:housenumber": "6", "addr:postcode": "1005", "addr:street": "Avenue du Th\u00e9\u00e2tre", "amenity": "cinema", "email": "info@cinematheque.ch", "fax": "+41 58 800 03 91", "name": "Le Capitole", "phone": "+41 58 800 02 00", "website": "http://www.lecapitole.ch/", "wikidata": "Q2937483", "wikipedia": "fr:Capitole (cin\u00e9ma)"}}, {"type": "node", "id": 1740248979, "lat": 46.293722, "lon": 7.5343962, "tags": {"addr:city": "Sierre", "addr:housenumber": "1", "addr:postcode": "3960", "addr:street": "Av. Max Huber", "amenity": "cinema", "name": "Cin\u00e9ma du Bourg", "phone": "027 455 01 18"}}, {"type": "node", "id": 1766754356, "lat": 47.0765605, "lon": 7.3041683, "tags": {"amenity": "cinema", "name": "Apollo", "operator": "Cinergie", "website": "https://www.cinergie.ch/lyss.htm"}}, {"type": "node", "id": 1775842549, "lat": 46.4955636, "lon": 6.3901109, "tags": {"amenity": "cinema", "designation": "Cin\u00e9ma Rex", "name": "Rex"}}, {"type": "node", "id": 1785896627, "lat": 47.0975686, "lon": 9.0632656, "tags": {"amenity": "cinema", "name": "Kino N\u00e4fels", "website": "https://www.kinonaefels.ch/", "wikidata": "Q47354412"}}, {"type": "node", "id": 1787803554, "lat": 47.5083347, "lon": 8.020295, "tags": {"addr:city": "Frick", "addr:housenumber": "5", "addr:postcode": "5070", "addr:street": "Kaistenbergstrasse", "amenity": "cinema", "name": "fricks monti", "phone": "+41 62 871 04 44", "website": "https://www.fricks-monti.ch/", "wikidata": "Q50873002"}}, {"type": "node", "id": 1932167906, "lat": 47.5535669, "lon": 7.7936263, "tags": {"amenity": "cinema", "name": "Studiokino"}}, {"type": "node", "id": 1934343380, "lat": 46.7280707, "lon": 8.1876112, "tags": {"addr:city": "Meiringen", "addr:country": "CH", "addr:housenumber": "7", "addr:postcode": "3860", "addr:street": "Kirchgasse", "amenity": "cinema", "name": "Kino Meiringen", "website": "https://www.kino-meiringen.ch/", "wikidata": "Q47354358"}}, {"type": "node", "id": 1936575906, "lat": 46.1925301, "lon": 6.1437618, "tags": {"addr:city": "Gen\u00e8ve", "addr:housenumber": "72-74", "addr:postcode": "1205", "addr:street": "Rue de Carouge", "amenity": "cinema", "name": "Cin\u00e9rama Empire", "payment:cash": "yes", "payment:credit_cards": "yes", "payment:debit_cards": "yes", "phone": "+41 22 310 72 74", "screen": "1", "website": "http://www.cinerama-empire.ch/", "wheelchair": "yes", "wikidata": "Q35721020"}}, {"type": "node", "id": 2434518627, "lat": 47.3929814, "lon": 8.0466587, "tags": {"addr:city": "Aarau", "addr:country": "CH", "addr:housenumber": "13", "addr:postcode": "5000", "addr:street": "Kasinostrasse", "amenity": "cinema", "name": "Kinocenter Ideal", "website": "https://www.kino-aarau.ch/", "wheelchair": "yes", "wikidata": "Q35718760"}}, {"type": "node", "id": 2781785220, "lat": 46.0100664, "lon": 8.9560782, "tags": {"amenity": "cinema", "name": "Citadella"}}, {"type": "node", "id": 2824748760, "lat": 46.7590301, "lon": 7.625591, "tags": {"amenity": "cinema", "name": "Kino Rex", "toilets:wheelchair": "yes", "wheelchair": "yes", "wikidata": "Q47354356"}}, {"type": "node", "id": 2906841538, "lat": 47.2373753, "lon": 7.2856938, "tags": {"amenity": "cinema", "name": "Cinema Palace", "wikidata": "Q35720223"}}, {"type": "node", "id": 2953822533, "lat": 47.3746221, "lon": 8.5201723, "tags": {"addr:city": "Z\u00fcrich", "addr:country": "CH", "addr:housenumber": "173", "addr:postcode": "8003", "addr:street": "Badenerstrasse", "amenity": "cinema", "name": "Houdini", "operator": "Neugass Kino AG", "screen": "5", "website": "https://www.kinohoudini.ch/", "wheelchair": "yes", "wikidata": "Q35722188"}}, {"type": "node", "id": 3037444583, "lat": 45.8705682, "lon": 8.9861429, "tags": {"addr:city": "Mendrisio", "addr:country": "CH", "addr:postcode": "6850", "addr:street": "Via Luigi Lavizzari", "amenity": "cinema", "contact:facebook": "https://www.facebook.com/Cinema-Multisala-Teatro-Plaza-Eventi-Live-Mendrisio-254066804640221/", "name": "Cinema Plaza", "phone": "+41 91 646 15 34", "screen": "1", "source": "Website and Survey", "website": "https://www.mendrisiocinema.ch/"}}, {"type": "node", "id": 3087536398, "lat": 46.5475426, "lon": 7.9847887, "tags": {"amenity": "cinema", "layer": "-1", "name": "Jungfrau Panorama", "wheelchair": "limited"}}, {"type": "node", "id": 3098063677, "lat": 46.9404989, "lon": 7.4421399, "tags": {"addr:city": "Bern", "addr:housenumber": "3", "addr:postcode": "3007", "addr:street": "Sandrainstrasse", "alt_name": "Lichtspiel / Kinemathek Bern", "amenity": "cinema", "contact:addr": "Sandrainstrasse 3, 3007 Bern", "contact:email": "info@lichtspiel.ch", "contact:fax": "+41 31 3811541", "contact:phone": "+41 31 3811505", "heritage": "2", "heritage:operator": "babs", "image": "https://upload.wikimedia.org/wikipedia/commons/thumb/2/25/Lictspiel_Sammlung_Kleinprojektoren.jpg/800px-Lictspiel_Sammlung_Kleinprojektoren.jpg", "name": "Lichtspiel / Kinemathek", "note": "KGS-Nr: Nummer des Kulturgutes, zu finden in den KGS-Listen des Bundes und der Kantone. BABS: Bundesamt f\u00fcr Bev\u00f6lkerungsschutz", "opening_hours:url": "http://www.lichtspiel.ch/agenda/aktuelles-programm/", "ref:kgs": "8488", "source": "website", "tourism": "museum", "website": "http://www.lichtspiel.ch", "wheelchair": "yes", "wikidata": "Q681911", "wikipedia": "de:Lichtspiel / Kinemathek Bern"}}, {"type": "node", "id": 3114421050, "lat": 47.0421736, "lon": 7.2706286, "tags": {"addr:city": "Aarberg", "addr:housenumber": "23", "addr:postcode": "3270", "addr:street": "Murtenstrasse", "amenity": "cinema", "name": "Royal"}}, {"type": "node", "id": 3124328160, "lat": 47.227475, "lon": 8.8192389, "tags": {"addr:city": "Rapperswil SG", "addr:housenumber": "46", "addr:postcode": "8640", "addr:street": "Obere Bahnhofstrasse", "amenity": "cinema", "name": "Leuzinger", "website": "http://www.kinoevent.ch/", "wheelchair": "limited", "wikidata": "Q35721751"}}, {"type": "node", "id": 3134178674, "lat": 47.4543291, "lon": 9.6273906, "tags": {"amenity": "cinema", "name": "Panorama-Film"}}, {"type": "node", "id": 3156559913, "lat": 46.5282172, "lon": 6.9004569, "tags": {"addr:city": "Ch\u00e2tel-Saint-Denis", "addr:housenumber": "7", "addr:postcode": "1618", "addr:street": "Route des Misets", "amenity": "cinema", "name": "Sirius", "phone": "+41 21 948 94 86", "website": "https://cinema-sirius.ch/", "wikidata": "Q47354334"}}, {"type": "node", "id": 3196217826, "lat": 47.6961957, "lon": 8.6383699, "tags": {"amenity": "cinema", "name": "Kiwi Scala", "website": "https://kiwikinos.ch/schaffhausen/", "wikidata": "Q47354401"}}, {"type": "node", "id": 3211222024, "lat": 46.9485801, "lon": 7.4417216, "tags": {"addr:city": "Bern", "addr:housenumber": "8", "addr:postcode": "3011", "addr:street": "Von-Werdt-Passage", "alt_name": "Cin\u00e9 splendid", "amenity": "cinema", "brand": "kitag", "contact:addr": "Von Werdt-Passage 8, 3011 Bern", "name": "splendid", "note": "Seats for wheelchair in kitag cinemas in Bern: http://www.kitag.com/Informationen/Rollstuhlplaetze/Bern.aspx", "operator": "kitag kino-theater ag", "source": "survey", "website": "https://www.kitag.com", "wheelchair": "yes", "wikidata": "Q35720194"}}, {"type": "node", "id": 3211275460, "lat": 46.946881, "lon": 7.4352146, "tags": {"addr:city": "Bern", "addr:housenumber": "4", "addr:postcode": "3011", "addr:street": "Seilerstrasse", "alt_name": "Movie 3", "amenity": "cinema", "cinema:capacity": "50", "contact:addr": "Seilerstrasse 4, 3011 Bern", "contact:phone": "+41 31 3861717", "name": "cineMovie 3", "operator": "Quinnie Cinemas", "source": "survey and website", "toilets:wheelchair": "yes", "website": "https://www.quinnie.ch/de/component/content/article/47-bern/ueber-uns/168-cinemovie3.html?Itemid=168", "wheelchair": "yes"}}, {"type": "node", "id": 3211276061, "lat": 46.9469167, "lon": 7.4353358, "tags": {"addr:city": "Bern", "addr:housenumber": "4", "addr:postcode": "3011", "addr:street": "Seilerstrasse", "alt_name": "Movie 2", "amenity": "cinema", "cinema:capacity": "98", "contact:addr": "Seilerstrasse 4. 3011 Bern", "contact:phone": "+41 31 3861717", "name": "cineMovie 2", "operator": "Quinnie Cinemas", "source": "survey and website", "website": "https://www.quinnie.ch/de/component/content/article/47-bern/ueber-uns/167-cinemovie2.html?Itemid=167"}}, {"type": "node", "id": 3239093800, "lat": 46.1692289, "lon": 8.7943491, "tags": {"amenity": "cinema", "name": "Cinema Ex*Rex", "opening_hours:signed": "no"}}, {"type": "node", "id": 3323252269, "lat": 45.8722987, "lon": 8.986142, "tags": {"addr:city": "Chiasso", "addr:country": "CH", "addr:housenumber": "21", "addr:postcode": "6830", "addr:street": "Via Vincenzo Vela", "amenity": "cinema", "bar": "yes", "bar:level": "1", "cinema:3D": "yes", "contact:facebook": "https://www.facebook.com/Cinema-Multisala-Teatro-Plaza-Eventi-Live-Mendrisio-254066804640221/", "fitting_room": "yes", "fitting_room:level": "1", "foyer": "yes", "foyer:level": "1", "name": "Cinema Multisala Teatro", "screen": "3", "source": "website and survey", "stage:length": "11", "stage:width": "5", "wardrobe": "yes", "wardrobe:level": "-1", "website": "https://www.mendrisiocinema.ch/"}}, {"type": "node", "id": 3416273105, "lat": 46.7803565, "lon": 6.6367445, "tags": {"addr:city": "Yverdon-les-Bains", "addr:country": "CH", "addr:postcode": "1400", "addr:street": "Place Bel-Air", "amenity": "cinema", "name": "Bel-Air", "opening_hours:signed": "no", "phone": "+41 24 425 73 22", "toilets:wheelchair": "yes", "website": "http://www.cinemabelair.ch/", "wheelchair": "yes", "wikidata": "Q47354320"}}, {"type": "node", "id": 3416284599, "lat": 46.6129895, "lon": 6.5084754, "tags": {"addr:housenumber": "3", "addr:street": "Route de Morges", "amenity": "cinema", "fax": "+41 21 861 28 38", "name": "Casino SA", "opening_hours:signed": "no", "phone": "+41 21 861 19 38", "phone_1": "+41 79 917 10 92", "smoking": "outside", "website": "http://www.cinemacossonay.ch/", "wikidata": "Q47354318"}}, {"type": "node", "id": 3625211452, "lat": 46.9277994, "lon": 7.1176747, "tags": {"addr:housenumber": "18", "addr:street": "Schulgasse", "amenity": "cinema", "contact:facebook": "https://www.facebook.com/Kino-Murten-le-cin%C3%A9ma-Feuerwehrmagazin-No-1-116838158415472/", "email": "info@kino-murten.ch", "name": "le cin\u00e9ma Feuerwehrmagazin n\u00b01", "phone": "+41 26 670 08 88", "website": "http://www.kino-murten.ch", "wikidata": "Q47354338"}}, {"type": "node", "id": 3667564363, "lat": 47.5489084, "lon": 7.5896622, "tags": {"amenity": "cinema", "name": "Mascotte", "opening_hours": "10:00-23:00"}}, {"type": "node", "id": 3676232684, "lat": 46.6955879, "lon": 9.439021, "tags": {"addr:housenumber": "14", "addr:street": "Obere Stallstrasse", "amenity": "cinema", "name": "Kino R\u00e4tia", "wikidata": "Q47354417"}}, {"type": "node", "id": 3794315359, "lat": 47.3141118, "lon": 8.0533542, "tags": {"addr:city": "Sch\u00f6ftland", "addr:postcode": "5040", "addr:street": "Feldackerstrasse", "amenity": "cinema", "name": "Cinema 8", "wikidata": "Q47354384"}}, {"type": "node", "id": 3826674660, "lat": 47.1556839, "lon": 7.2812113, "tags": {"amenity": "cinema", "brand": "blue Cinema", "name": "Cinedome", "operator": "KITAG Kino-Theater AG", "website": "https://www.bluecinema.ch/de/kinos-und-infos/kinos/cinedome/"}}, {"type": "node", "id": 3876214045, "lat": 46.2302807, "lon": 7.3609811, "tags": {"amenity": "cinema", "name": "Le Capitole"}}, {"type": "node", "id": 3898728744, "lat": 47.4944778, "lon": 8.7180068, "tags": {"amenity": "cinema", "name": "Cameo", "opening_hours": "Mo,Tu,Th,Sa 17:00-23:00; Fr 11:30-14:00,17:00-23:00; Su 10:00-13:00", "website": "http://www.kinocameo.ch", "wikidata": "Q47354396"}}, {"type": "node", "id": 4109593942, "lat": 46.8905549, "lon": 7.4971583, "tags": {"addr:city": "Belp", "addr:housenumber": "3", "addr:postcode": "3123", "addr:street": "Grubenstrasse", "amenity": "cinema", "name": "Kino um die Ecke", "phone": "+41 31 819 70 70", "toilets:wheelchair": "yes", "website": "https://kinoumdieecke.ch/", "wheelchair": "yes", "wheelchair:description": "Unser Kinofoyer ist \u00fcber einen Rollstuhl-freundlichen Weg erreichbar und verf\u00fcgt \u00fcber ein Behinderten WC. In den S\u00e4len hat es Platz f\u00fcr 1-2 Rollst\u00fchle.", "wikidata": "Q35719604"}}, {"type": "node", "id": 4163517489, "lat": 47.5611167, "lon": 7.5940753, "tags": {"amenity": "cinema", "name": "Kult Kino Camera", "toilets:wheelchair": "no", "wheelchair": "yes", "wikidata": "Q47354373"}}, {"type": "node", "id": 4195581801, "lat": 47.3609666, "lon": 7.3584765, "tags": {"amenity": "cinema", "name": "Cin\u00e9mont", "operator": "Cinemont SA", "toilets:wheelchair": "yes", "wheelchair": "yes"}}, {"type": "node", "id": 4226641586, "lat": 47.5535868, "lon": 7.5904017, "tags": {"addr:city": "Basel", "addr:housenumber": "7", "addr:postcode": "4051", "addr:street": "Theaterstrasse", "amenity": "cinema", "name": "kult.kino", "opening_hours": "Su-We 11:30-21:00; Th 11:30-22:00; Fr 11:30-23:00; Sa 10:00-23:00", "phone": "+41 61 272 87 81", "toilets:wheelchair": "yes", "website": "https://www.kultkino.ch/", "wheelchair": "yes", "wikidata": "Q47354372"}}, {"type": "node", "id": 4327842316, "lat": 47.0569454, "lon": 8.3114073, "tags": {"amenity": "cinema", "name": "stattkino", "wikidata": "Q47354389"}}, {"type": "node", "id": 4734136134, "lat": 47.2868184, "lon": 7.9459115, "tags": {"addr:housenumber": "54", "addr:street": "Pfistergasse", "amenity": "cinema", "name": "Palass", "name:de": "Palass"}}, {"type": "node", "id": 4841545860, "lat": 47.4088952, "lon": 8.5454065, "tags": {"addr:city": "Z\u00fcrich", "addr:country": "CH", "addr:housenumber": "9", "addr:postcode": "8050", "addr:street": "Franklinstrasse", "amenity": "cinema", "min_age": "18", "name": "Sternen", "opening_hours": "Mo-Su 11:00-23:00", "operator": "East Cinemas", "screen": "2"}}, {"type": "node", "id": 4841545861, "lat": 47.3800062, "lon": 8.5421676, "tags": {"addr:city": "Z\u00fcrich", "addr:country": "CH", "addr:housenumber": "11", "addr:postcode": "8006", "addr:street": "Walchestrasse", "amenity": "cinema", "min_age": "18", "name": "Walche", "opening_hours": "Mo-Su 10:00-23:00", "operator": "East Cinemas", "screen": "3"}}, {"type": "node", "id": 4949509622, "lat": 46.3439928, "lon": 7.0142771, "tags": {"amenity": "cinema", "name": "Cin\u00e9ma Le Regency"}}, {"type": "node", "id": 4991220817, "lat": 47.2102046, "lon": 7.7866067, "tags": {"addr:city": "Langenthal", "addr:housenumber": "7", "addr:postcode": "4900", "addr:street": "Lotzwilstrasse", "amenity": "cinema", "name": "Kino Scala Langenthal", "toilets:wheelchair": "yes", "website": "http://www.kino-scala.ch/", "wheelchair": "yes", "wikidata": "Q47354367"}}, {"type": "node", "id": 5096465456, "lat": 47.0925181, "lon": 8.3574843, "tags": {"addr:city": "Ebikon", "addr:housenumber": "2", "addr:postcode": "6030", "addr:street": "Ebisquare", "amenity": "cinema", "name": "Path\u00e9", "operator": "Path\u00e8", "screen": "12", "wheelchair": "yes"}}, {"type": "node", "id": 5124218355, "lat": 46.9640766, "lon": 8.3561254, "tags": {"amenity": "cinema", "name": "Kino Stans", "phone": "+41416120400", "website": "https://kinostans.ch/"}}, {"type": "node", "id": 5151401063, "lat": 46.3081159, "lon": 7.4687386, "tags": {"amenity": "cinema", "name": "Cinecrans", "wikidata": "Q47354329"}}, {"type": "node", "id": 5246987737, "lat": 47.2043263, "lon": 7.5362071, "tags": {"addr:housenumber": "18", "addr:street": "Berntorstrasse", "amenity": "cinema", "contact:phone": "+41 32 622 16 30", "contact:website": "http://www.kinosolothurn.ch/de/capitol/", "name": "Capitol"}}, {"type": "node", "id": 5334093612, "lat": 47.2605805, "lon": 8.8491384, "tags": {"addr:city": "R\u00fcti (ZH)", "addr:housenumber": "16", "addr:postcode": "8630", "addr:street": "Amthofstrasse", "amenity": "cinema", "name": "aditorium", "website": "http://www.aditorium.ch"}}, {"type": "node", "id": 5433821714, "lat": 47.1353757, "lon": 7.2452617, "tags": {"addr:city": "Biel/Bienne", "addr:housenumber": "30", "addr:postcode": "2502", "addr:street": "Rue de la Gare / Bahnhofstrasse", "addr:street:de": "Bahnhofstrasse", "addr:street:fr": "Rue de la Gare", "amenity": "cinema", "name": "Cinevital", "phone": "+41313220262", "website": "https://www.cinevital.ch/"}}, {"type": "node", "id": 5462385083, "lat": 46.4370535, "lon": 6.9085159, "tags": {"addr:city": "Montreux", "addr:housenumber": "90", "addr:postcode": "1820", "addr:street": "Grand'Rue", "amenity": "cinema", "name": "Hollywood", "website": "https://cinerive.com/", "wikidata": "Q35721610"}}, {"type": "node", "id": 5469805827, "lat": 46.2009944, "lon": 6.1416872, "tags": {"addr:city": "Gen\u00e8ve", "addr:postcode": "1211", "addr:street": "16, rue du G\u00e9n\u00e9ral Dufour", "amenity": "cinema", "description": "Fonction : Cin\u00e9ma est une association professionnelle \u00e0 but non lucratif dont l\u2019objectif est d\u2019encourager la cr\u00e9ation cin\u00e9matographique ind\u00e9pendante \u00e0 Gen\u00e8ve et en Suisse romande.", "email": "contact@fonction-cinema.ch", "name": "FONCTION: CIN\u00c9MA", "opening_hours": "\"La salle est lou\u00e9e soit pour des projections publiques ou priv\u00e9es. Aucun horaire fixe, souvent aucune information affich\u00e9e sur place (la communication d'un \u00e9v\u00e9nement se faisant par d'autres canaux).\"", "phone": "+41 22 328 85 54", "website": "https://fonction-cinema.ch/"}}, {"type": "node", "id": 5489223499, "lat": 47.2892909, "lon": 7.7199152, "tags": {"amenity": "cinema", "contact:phone": "+41 62 396 30 70", "contact:website": "https://www.kino-onik.ch", "name": "Kino Onik"}}, {"type": "node", "id": 5491523629, "lat": 46.2918185, "lon": 7.5303062, "tags": {"addr:city": "Sierre/Siders", "addr:housenumber": "19", "addr:postcode": "3960", "addr:street": "Avenue G\u00e9n\u00e9ral-Guisan", "amenity": "cinema", "name": "Cin\u00e9ma Casino", "phone": "+41(0)27 455 14 60"}}, {"type": "node", "id": 5518142476, "lat": 46.4916856, "lon": 9.9047775, "tags": {"addr:city": "Pontresina", "addr:housenumber": "5", "addr:postcode": "7504", "addr:street": "Via Cruscheda", "amenity": "cinema", "name": "Rex", "wikidata": "Q47354420"}}, {"type": "node", "id": 5549893521, "lat": 46.1794646, "lon": 6.1277921, "tags": {"addr:housenumber": "10", "addr:street": "Route des Jeunes", "amenity": "cinema", "name": "Cin\u00e9ma Arena la Praille"}}, {"type": "node", "id": 5586524520, "lat": 47.0630528, "lon": 7.0946772, "tags": {"addr:housenumber": "3", "addr:postcode": "2520", "addr:street": "Place de la Gare", "amenity": "cinema", "name": "Cin\u00e9ma de la Neuveville", "phone": "+41 32 751 27 50", "website": "http://www.cine2520.ch", "wheelchair": "yes", "wikidata": "Q47354349"}}, {"type": "node", "id": 5632591926, "lat": 46.8329183, "lon": 9.2825731, "tags": {"alt_name": "The Hideaway Cinema", "amenity": "cinema", "internet_access": "wlan", "name": "The Hideaway", "screen": "4", "website": "https://kino-flims.ch"}}, {"type": "node", "id": 5694555039, "lat": 47.1385042, "lon": 7.2456475, "tags": {"amenity": "cinema", "name": "Beluga", "operator": "Cinevital AG", "wikidata": "Q35720312"}}, {"type": "node", "id": 5966081335, "lat": 46.0050947, "lon": 8.9534504, "tags": {"amenity": "cinema", "name": "Cinema Iride", "wikidata": "Q47354423"}}, {"type": "node", "id": 5966091088, "lat": 46.0123006, "lon": 8.9446225, "tags": {"amenity": "cinema", "name": "Cinema Lux Arthouse", "wikidata": "Q47354426"}}, {"type": "node", "id": 5966109585, "lat": 46.1699061, "lon": 8.7953012, "tags": {"amenity": "cinema", "name": "Cinema Teatro Kursaal", "wikidata": "Q35721554"}}, {"type": "node", "id": 5966166512, "lat": 46.1680286, "lon": 8.794611, "tags": {"addr:city": "Locarno", "addr:housenumber": "1", "addr:postcode": "6600", "addr:street": "Piazzetta remo rossi", "amenity": "cinema", "name": "PalaCinema", "wikidata": "Q56877174"}}, {"type": "node", "id": 6104066970, "lat": 46.8550463, "lon": 9.5244625, "tags": {"amenity": "cinema", "name": "Apollo", "wheelchair": "limited", "wikidata": "Q47354414"}}, {"type": "node", "id": 6176912903, "lat": 46.9271637, "lon": 7.5023797, "tags": {"addr:city": "Muri bei Bern", "addr:housenumber": "32", "addr:postcode": "3073", "addr:street": "Feldstrasse", "amenity": "cinema", "brand": "blue Cinema", "name": "Cinedome", "operator": "KITAG Kino-Theater AG", "website": "https://www.bluecinema.ch/de/kinos-und-infos/kinos/cinedome/", "wheelchair": "yes"}}, {"type": "node", "id": 6223166402, "lat": 47.553167, "lon": 7.590796, "tags": {"addr:city": "Basel", "addr:housenumber": "5", "addr:postcode": "4051", "addr:street": "Klostergasse", "amenity": "cinema", "name": "Stadtkino Basel", "website": "https://www.stadtkinobasel.ch/", "wikidata": "Q13142923"}}, {"type": "node", "id": 6297307151, "lat": 47.2126433, "lon": 7.004393, "tags": {"addr:city": "Les Breuleux", "addr:country": "CH", "addr:housenumber": "2", "addr:postcode": "2345", "addr:street": "Rue de la Chaux", "amenity": "cinema", "email": "info@cinemalux.ch", "name": "Lux", "phone": "+41 32 487 66 91"}}, {"type": "node", "id": 6372498624, "lat": 47.5523081, "lon": 7.5883066, "tags": {"amenity": "cinema", "name": "Path\u00e9"}}, {"type": "node", "id": 6498626762, "lat": 47.4209519, "lon": 8.3718685, "tags": {"amenity": "cinema", "cinema:3D": "yes", "name": "Path\u00e9", "opening_hours": "Mo-Th 12:00-24:00; Fr 12:00-02:00; Sa 10:00-02:00; Su 10:00-24:00", "screen": "10", "website": "http://pathe.ch/de/kino-infos/aargau/spreitenbach", "wheelchair": "limited"}}, {"type": "node", "id": 6703441114, "lat": 47.2773497, "lon": 7.3704193, "tags": {"addr:housenumber": "1", "addr:street": "Rue du Clos", "amenity": "cinema", "name": "Le Cinoche", "phone": "+41 32 493 73 73", "screen": "1", "website": "http://www.cinoche.ch"}}, {"type": "node", "id": 6765966320, "lat": 46.4811508, "lon": 6.7801447, "tags": {"addr:housenumber": "9", "addr:street": "Rue du Bourg", "amenity": "cinema", "name": "Cin\u00e9ma de Chexbres", "screen": "1", "start_date": "1952", "website": "http://www.cinechexbres.ch/"}}, {"type": "node", "id": 6898535586, "lat": 46.5240999, "lon": 6.624014, "tags": {"addr:city": "Lausanne", "addr:housenumber": "9", "addr:postcode": "1004", "addr:street": "Avenue de France", "amenity": "cinema", "name": "Obl\u00f2"}}, {"type": "node", "id": 6942571195, "lat": 47.0681787, "lon": 9.0592088, "tags": {"addr:housenumber": "45", "addr:postcode": "8754", "addr:street": "Molliserstrasse", "amenity": "cinema", "name": "Arena Cinemas", "phone": "+41 55 552 12 34", "website": "https://www.arena.ch/de/netstal-wiggispark"}}, {"type": "node", "id": 7107728319, "lat": 47.4207478, "lon": 7.0760591, "tags": {"addr:city": "Porrentruy", "addr:housenumber": "16", "addr:postcode": "2900", "addr:street": "Route de Belfort", "air_conditioning": "yes", "amenity": "cinema", "name": "Cin\u00e9majoie", "payment:cash": "yes", "screen": "1", "website": "https://cinemajoie.ch", "wheelchair": "yes"}}, {"type": "node", "id": 7132139631, "lat": 46.4581089, "lon": 7.4413132, "tags": {"addr:city": "Lenk im Simmental", "addr:housenumber": "14", "addr:postcode": "3775", "addr:street": "G\u00e4ssli", "amenity": "cinema", "name": "Cin\u00e9ma Lenk", "phone": "+41 33 733 33 43", "screen": "1", "wikidata": "Q47354359"}}, {"type": "node", "id": 7352254941, "lat": 46.5120427, "lon": 6.6589031, "tags": {"amenity": "cinema", "name": "CityClub Pully", "phone": "+41 21 711 31 91", "website": "https://www.cityclubpully.ch/"}}, {"type": "node", "id": 7527377301, "lat": 47.2110385, "lon": 7.789639, "tags": {"amenity": "cinema", "name": "OldCapitol", "opening_hours:covid19": "off", "operator": "Kulturverein OldCapitol", "website": "https://oldcapitol.ch/"}}, {"type": "node", "id": 7749609008, "lat": 46.6077273, "lon": 7.9208819, "tags": {"amenity": "cinema"}}, {"type": "node", "id": 7804989120, "lat": 47.4426008, "lon": 9.5333822, "tags": {"amenity": "cinema", "contact:email": "info@kino-heiden.ch", "contact:phone": "+41 71 891 36 36", "contact:website": "https://www.kino-heiden.ch/", "name": "Kino Rosental", "opening_hours": "Th, Fr,Sa 20:15+; Sa 17:15+; Su 15:00+, 19:15+", "screen": "1", "wikidata": "Q47354410"}}, {"type": "node", "id": 7869379848, "lat": 47.225765, "lon": 8.8645255, "tags": {"addr:housenumber": "31", "addr:street": "St. Dionysstrasse", "amenity": "cinema", "email": "event@Lounge-Kino.ch", "name": "Lounge-Kino", "phone": "+41 58 520 94 29", "screen": "1", "website": "https://www.lounge-kino.ch/"}}, {"type": "node", "id": 7873024397, "lat": 46.9768513, "lon": 8.756884, "tags": {"addr:city": "Muotathal", "addr:housenumber": "17", "addr:postcode": "6436", "addr:street": "Wil", "amenity": "cinema", "name": "Kino Muotathal", "screen": "1", "website": "https://kino-muotathal.ch/"}}, {"type": "node", "id": 8011299899, "lat": 46.0972077, "lon": 7.0690383, "tags": {"amenity": "cinema", "name": "Le Corso", "wikidata": "Q35721583"}}, {"type": "node", "id": 8401931886, "lat": 46.4682919, "lon": 8.2454842, "tags": {"amenity": "cinema", "name": "cin\u00e9ma sibir"}}, {"type": "node", "id": 8524689456, "lat": 46.5181289, "lon": 6.6300349, "tags": {"addr:city": "Lausanne", "addr:country": "CH", "amenity": "cinema", "name": "Path\u00e9 Galeries", "opening_hours": "Mo-Su,PH 10:00-24:00+", "wikidata": "Q35721521"}}, {"type": "node", "id": 9170074857, "lat": 47.2247917, "lon": 8.9804846, "tags": {"amenity": "cinema", "name": "Rex", "wheelchair": "no"}}, {"type": "node", "id": 9308209740, "lat": 47.0210317, "lon": 8.6547265, "tags": {"addr:city": "Schwyz", "addr:housenumber": "8", "addr:postcode": "6430", "addr:street": "Reichsstrasse", "amenity": "cinema", "name": "Kino Schwyz"}}, {"type": "node", "id": 9308476984, "lat": 47.7135309, "lon": 8.6562453, "tags": {"amenity": "cinema", "brand": "Kinepolis", "brand:wikidata": "Q1741993", "name": "Kinepolis", "toilets:wheelchair": "yes", "website": "https://kinepolis.ch/kino/kinepolis-schaffhausen/info", "wheelchair": "yes", "wikidata": "Q35721838"}}, {"type": "node", "id": 9324924789, "lat": 47.3860686, "lon": 9.2799354, "tags": {"amenity": "cinema"}}, {"type": "node", "id": 9369485083, "lat": 47.558294, "lon": 8.8957886, "tags": {"addr:housenumber": "10", "addr:street": "Lindenstrasse", "amenity": "cinema", "email": "info@cinemaluna.ch", "name": "Cinema Luna", "phone": "+41 52 720 36 00", "website": "http://www.cinemaluna.ch", "wheelchair": "yes", "wikidata": "Q47354403"}}, {"type": "node", "id": 9529779005, "lat": 47.5816226, "lon": 7.5963877, "tags": {"amenity": "cinema", "branch": "BASEL St\u00fccki Park", "name": "Arena Cinemas", "website": "www.arena.ch/de/basel"}}, {"type": "node", "id": 9965426308, "lat": 46.278394, "lon": 7.0288143, "tags": {"amenity": "cinema", "layer": "-1", "location": "underground"}}, {"type": "node", "id": 10101996506, "lat": 46.2023101, "lon": 6.130815, "tags": {"amenity": "cinema", "name": "Cin\u00e9ma C.D.D. Gen\u00e8ve", "website": "http://cinemacdd.ch"}}]